ORBCOMM FM08            
1 25112U 97084A   21049.47880289  .00000114  00000-0  82113-4 0  9996
2 25112  45.0179 335.6250 0007439 224.1363 135.8893 14.39199112213550
ORBCOMM FM10            
1 25113U 97084B   21049.53379432  .00000133  00000-0  88213-4 0  9995
2 25113  45.0191 336.8621 0004251 200.8782 159.1894 14.39192323388634
ORBCOMM FM11            
1 25114U 97084C   21049.47712024  .00000078  00000-0  70852-4 0  9995
2 25114  45.0174 336.5151 0005119 197.2048 162.8628 14.39126994213600
ORBCOMM FM12            
1 25115U 97084D   21049.51416646  .00000080  00000-0  71254-4 0  9992
2 25115  45.0183 336.0424 0004080 203.7788 156.2873 14.39147589213421
ORBCOMM FM09            
1 25116U 97084E   21049.51499012  .00000088  00000-0  73952-4 0  9996
2 25116  45.0185 336.5782 0004834 179.8222 180.2629 14.39155517213616
ORBCOMM FM05            
1 25117U 97084F   21049.49263035  .00000054  00000-0  62995-4 0  9996
2 25117  45.0183 336.9319 0002396 256.4283 103.6299 14.39135772212695
ORBCOMM FM06            
1 25118U 97084G   21049.49883185  .00000079  00000-0  71124-4 0  9992
2 25118  45.0180 336.5131 0002474 261.1961 269.4766 14.39183456213619
ORBCOMM FM07            
1 25119U 97084H   21049.50001708  .00000092  00000-0  75196-4 0  9996
2 25119  45.0175 336.8063 0002644 221.8795 138.1852 14.39155469213619
INMARSAT 3-F5           
1 25153U 98006B   21049.46831792 -.00000288  00000-0  00000-0 0  9994
2 25153   5.3381  68.9048 0004922 261.1008 293.2418  1.00273447 84399
ORBCOMM FM04            
1 25159U 98007C   21049.52576419  .00000060  00000-0  73599-4 0  9994
2 25159 107.9905 147.1821 0042873 115.8362 244.7206 14.29916257198187
CELESTIS-02 & TAURUS R/B
1 25160U 98007D   21049.55034373 -.00000087  00000-0  18761-4 0  9997
2 25160 107.9741  12.7505 0063756 219.7429 195.8680 14.21557938194091
UFO 8 (USA 138)         
1 25258U 98016A   21049.60535272 -.00000023  00000-0  00000-0 0  9998
2 25258   8.9180  31.8069 0003903 301.3992 205.0687  1.00270958 84359
NOAA 15                 
1 25338U 98030A   21049.50723783  .00000010  00000-0  22651-4 0  9993
2 25338  98.6960  79.0168 0009347 266.2582  93.7529 14.26013388184044
TECHSAT 1B (GO-32)      
1 25397U 98043D   21049.56427101  .00000000  00000-0  19661-4 0  9999
2 25397  98.7582 355.5285 0002362  76.8688 283.2754 14.23701380174570
ORBCOMM FM18            
1 25414U 98046B   21049.44112778  .00000045  00000-0  66958-4 0  9990
2 25414  44.9960  67.4148 0006105 284.6350  75.3820 14.33104849177366
ORBCOMM FM19            
1 25415U 98046C   21049.51098760  .00000026  00000-0  60169-4 0  9990
2 25415  44.9965  67.6913 0005157 275.4545 245.9023 14.33072883177366
ORBCOMM FM20            
1 25416U 98046D   21049.42246975  .00000002  00000-0  51720-4 0  9991
2 25416  44.9962  68.3762 0002587 257.0186 103.0371 14.33048579177472
ORBCOMM FM15            
1 25418U 98046F   21049.43778071  .00000038  00000-0  64647-4 0  9992
2 25418  44.9993  70.1655 0004872 294.6391 205.6669 14.33119792177356
ORBCOMM FM14            
1 25419U 98046G   21049.51600900  .00000052  00000-0  69712-4 0  9991
2 25419  44.9986  69.5240 0004177 279.4967 241.8717 14.33133121177357
ORBCOMM FM13            
1 25420U 98046H   21049.44980502  .00000037  00000-0  64194-4 0  9996
2 25420  44.9994  71.4372 0006209 287.9719  72.0450 14.32956193176418
ASTRA 2A                
1 25462U 98050A   21049.55651340  .00000149  00000-0  00000-0 0  9990
2 25462   2.2138  90.6540 0002443 224.5653  61.7688  1.00271561 26839
ORBCOMM FM21            
1 25475U 98053A   21049.57262385  .00000040  00000-0  65484-4 0  9997
2 25475  45.0095 154.4956 0001721 218.1668 141.9056 14.33042702170443
ORBCOMM FM23            
1 25477U 98053C   21049.60967308  .00000085  00000-0  81843-4 0  9996
2 25477  45.0094 156.0715 0002558 230.1241 129.9380 14.32905861170602
ORBCOMM FM27            
1 25481U 98053G   21049.54709008  .00000082  00000-0  80613-4 0  9996
2 25481  45.0069 155.4121 0001077 182.0891 177.9951 14.33021491170868
SCD 2                   
1 25504U 98060A   21049.63297727  .00000222  00000-0  11817-4 0  9996
2 25504  24.9947 167.6363 0017369 121.7617 261.2963 14.44114985178901
ISS (ZARYA)             
1 25544U 98067A   21049.73010417  .00001295  00000-0  31684-4 0  9992
2 25544  51.6438 208.6238 0003101  30.2592 155.9152 15.48974654270239
SWAS                    
1 25560U 98071A   21049.45261714  .00000176  00000-0  25062-4 0  9992
2 25560  69.8988 124.6552 0009977 312.8987  47.1331 14.94005241205762
GLOBALSTAR M023         
1 25621U 99004A   21049.44364150 -.00000036  00000-0  37715-3 0  9997
2 25621  52.0099 183.1882 0008852 231.6685 171.3926 12.62388104 16267
JCSAT-4A                
1 25630U 99006A   21049.50617828 -.00000309  00000-0  00000-0 0  9996
2 25630   5.1417  72.4010 0007678 213.7226 180.7453  1.00270006 31111
SKYNET 4E               
1 25639U 99009B   21049.18820406 -.00000031  00000-0  00000-0 0  9992
2 25639  11.0035  19.5999 0003514 305.4328 249.8569  1.00270545 31884
GLOBALSTAR M037         
1 25652U 99012D   21049.46058679 -.00000084  00000-0  11223-3 0  9997
2 25652  52.0021 314.3620 0001502 308.5037 222.1055 12.62335239 11819
ASIASAT 3S              
1 25657U 99013A   21049.43673851 -.00000225  00000-0  00000-0 0  9990
2 25657   5.3261  70.9045 0003096 279.7386 102.6899  1.00272926 80326
LANDSAT 7               
1 25682U 99020A   21049.51333796  .00000034  00000-0  17202-4 0  9999
2 25682  98.0499 110.4945 0001634 107.3431 252.7950 14.57192339162071
NIMIQ 1                 
1 25740U 99027A   21049.57561008 -.00000197  00000-0  00000-0 0  9991
2 25740   1.6845  91.9839 0005535 243.4315 294.0016  1.00272727 79559
DLR-TUBSAT              
1 25757U 99029B   21049.54320213 -.00000007  00000-0  98706-5 0  9994
2 25757  98.4444 343.8346 0014985 152.1781 208.0218 14.51436293151088
CXO                     
1 25867U 99040B   21051.75206349  .00000582  00000-0  00000-0 0  9990
2 25867  57.7201 259.5795 8138637 226.3372   0.4654  0.37803211  9996
ABS-7                   
1 25894U 99046A   21049.56052625  .00000136  00000-0  00000-0 0  9993
2 25894   1.5636  92.6374 0005832 242.5957  63.2882  1.00141185 77626
ABS-6                   
1 25924U 99053A   21049.58259692 -.00000118  00000-0  00000-0 0  9991
2 25924   0.0722 294.6531 0001636  43.9110 178.9145  1.00270214 78354
NAVSTAR 46 (USA 145)    
1 25933U 99055A   21049.58053652 -.00000083  00000-0  00000-0 0  9992
2 25933  52.3851  19.4159 0151087 119.5779  61.6183  2.00516625156574
AMC-4 (GE-4)            
1 25954U 99060A   21049.51122681  .00000089  00000-0  00000-0 0  9998
2 25954   0.3204  97.4014 0003073 222.7085 237.6943  1.00274020 24051
UFO 10 (USA 146)        
1 25967U 99063A   21049.31485446 -.00000185  00000-0  00000-0 0  9992
2 25967   8.1414  34.9363 0003232 327.8282 236.1821  1.00274974 77842
ORBCOMM FM30            
1 25980U 99065A   21049.47494228  .00000047  00000-0  68265-4 0  9991
2 25980  45.0345 331.3101 0006234  37.5786 322.5496 14.32970357107640
ORBCOMM FM31            
1 25981U 99065B   21049.46119719  .00000078  00000-0  79161-4 0  9991
2 25981  45.0254 326.1350 0003143  50.2457 309.8666 14.32985373107237
ORBCOMM FM32            
1 25982U 99065C   21049.48254620 -.00000087  00000-0  19807-4 0  9997
2 25982  45.0193 331.7649 0005324  66.9800 293.1607 14.32160357108005
ORBCOMM FM33            
1 25983U 99065D   21049.37043591  .00000086  00000-0  79008-4 0  9996
2 25983  45.0295 270.2727 0009333  68.5321 101.1657 14.35224611108867
ORBCOMM FM36            
1 25984U 99065E   21049.46463828  .00000119  00000-0  94012-4 0  9995
2 25984  45.0396 334.7610 0005173 330.8886  29.1672 14.32995725107645
ORBCOMM FM35            
1 25985U 99065F   21049.47169142  .00000047  00000-0  68016-4 0  9994
2 25985  45.0423 336.0665 0002333  52.2766 307.8292 14.33015290107981
XMM-NEWTON              
1 25989U 99066A   21048.85887839  .00000118  00000-0  00000-0 0  9994
2 25989  70.9601 314.8143 6759527  91.3651   0.1958  0.50135406 13256
DMSP 5D-3 F15 (USA 147) 
1 25991U 99067A   21049.61843368 -.00000087  00000-0 -20749-4 0  9995
2 25991  99.0032  29.2645 0010712 118.6682 331.5690 14.16461290 95298
TERRA                   
1 25994U 99068A   21049.58102288  .00000035  00000-0  17872-4 0  9998
2 25994  98.1878 126.1233 0001351  93.8085  37.1038 14.57127220126038
CELESTIS-03 & TAURUS R/B
1 26034U 99070C   21049.57764251  .00002151  00000-0  13233-3 0  9997
2 26034  98.2737   7.7431 0011685 335.0235  25.0426 15.11227868147885
GALAXY 11 (G-11)        
1 26038U 99071A   21049.53234906 -.00000161  00000-0  00000-0 0  9992
2 26038   1.8057  94.3135 0000760 196.5465 316.3805  1.00272256 77584
USA 148                 
1 26052U 00001A   21049.56409833  .00000042  00000-0  00000-0 0  9996
2 26052   8.7865  45.2231 0001999 302.1312 184.6913  1.00273066 13469
GLOBALSTAR M063         
1 26081U 00008A   21049.47633551 -.00000061  00000-0  31543-3 0  9992
2 26081  51.9969 311.7576 0004505 162.9323   8.4323 11.86125003970113
MTI                     
1 26102U 00014A   21049.56914132  .00006980  00000-0  91800-4 0  9998
2 26102  97.4765 309.9827 0008084  48.4630 311.7322 15.58794607162813
ASIASTAR                
1 26107U 00016A   21049.57186691 -.00000333  00000-0  00000-0 0  9992
2 26107   4.5662  75.5837 0004262 256.9610 127.0404  1.00270461 76427
IMAGE                   
1 26113U 00017A   21048.16620431  .00000418  00000-0  58133-2 0  9994
2 26113  94.9250 281.2842 7686667 152.5514 289.0977  1.68646037128688
USA 149 (DSP 20)        
1 26356U 00024A   21049.62031900  .00000098  00000-0  00000-0 0  9992
2 26356  11.7283  24.7195 0001092 198.2364 343.3129  1.00269440 13419
NAVSTAR 47 (USA 150)    
1 26360U 00025A   21049.39113236 -.00000038  00000-0  00000-0 0  9990
2 26360  53.6877  98.9395 0058060 165.9650 284.9114  2.00563319152263
